0 FENGYUN 1C DEB
1 29913U 99025HK  13281.00341987  .00000508  00000-0  34336-3 0   330
2 29913 099.0933 295.5053 0066367 105.2429 308.3276 14.03876420344969
0 FENGYUN 1C DEB
1 29913U 99025HK  13283.51748679  .00000643  00000-0  42733-3 0   348
2 29913 099.0934 298.0205 0066324 098.3728 054.2252 14.03879351345311
0 FENGYUN 1C DEB
1 29913U 99025HK  13285.77812970  .00000660  00000-0  43815-3 0   356
2 29913 099.0931 300.2821 0066309 092.1743 319.3776 14.03882161345634
0 FENGYUN 1C DEB
1 29913U 99025HK  13287.99036590  .00000690  00000-0  45671-3 0   364
2 29913 099.0930 302.4951 0066311 086.1027 339.9100 14.03886487345940
0 FENGYUN 1C DEB
1 29913U 99025HK  13290.35389384  .00000464  00000-0  31624-3 0   373
2 29913 099.0931 304.8593 0066320 079.6141 045.1007 14.03890905346272
0 FENGYUN 1C DEB
1 29913U 99025HK  13292.49875736  .00000339  00000-0  23834-3 0   387
2 29913 099.0932 307.0047 0066337 073.7302 085.1946 14.03894166346576
0 FENGYUN 1C DEB
1 29913U 99025HK  13294.75890227  .00000282  00000-0  20301-3 0   394
2 29913 099.0932 309.2655 0066345 067.5299 347.9453 14.03896789346890
